$$SOE
2460154.500000000, A.D. 2023-Jul-29 00:00:00.0000, 2.763465646652818E+09, 2.601040416055600E+09, -1.233850947890460E+09,
2460161.500000000, A.D. 2023-Aug-05 00:00:00.0000, 2.761211452416550E+09, 2.603640330708050E+09, -1.233863412118337E+09,
2460168.500000000, A.D. 2023-Aug-12 00:00:00.0000, 2.758955059006066E+09, 2.606238225090858E+09, -1.233874928787203E+09,
2460175.500000000, A.D. 2023-Aug-19 00:00:00.0000, 2.756696466365053E+09, 2.608834094973295E+09, -1.233885497864519E+09,
2460182.500000000, A.D. 2023-Aug-26 00:00:00.0000, 2.754435674743876E+09, 2.611427935727819E+09, -1.233895119342560E+09,
2460189.500000000, A.D. 2023-Sep-02 00:00:00.0000, 2.752172684677319E+09, 2.614019742348765E+09, -1.233903793236998E+09,
2460196.500000000, A.D. 2023-Sep-09 00:00:00.0000, 2.749907496975964E+09, 2.616609509358483E+09, -1.233911519596842E+09,
2460203.500000000, A.D. 2023-Sep-16 00:00:00.0000, 2.747640112899606E+09, 2.619197230542964E+09, -1.233918298545877E+09,
2460210.500000000, A.D. 2023-Sep-23 00:00:00.0000, 2.745370534929143E+09, 2.621782898803681E+09, -1.233924130370274E+09,
2460217.500000000, A.D. 2023-Sep-30 00:00:00.0000, 2.743098767797352E+09, 2.624366507316418E+09, -1.233929015523838E+09,
2460224.500000000, A.D. 2023-Oct-07 00:00:00.0000, 2.740824817424822E+09, 2.626948051454224E+09, -1.233932954379220E+09,
2460231.500000000, A.D. 2023-Oct-14 00:00:00.0000, 2.738548688800940E+09, 2.629527528161346E+09, -1.233935947091073E+09,
2460238.500000000, A.D. 2023-Oct-21 00:00:00.0000, 2.736270386038534E+09, 2.632104934380845E+09, -1.233937993736124E+09,
2460245.500000000, A.D. 2023-Oct-28 00:00:00.0000, 2.733989913177817E+09, 2.634680266796031E+09, -1.233939094414583E+09,
2460252.500000000, A.D. 2023-Nov-04 00:00:00.0000, 2.731707274489600E+09, 2.637253522115327E+09, -1.233939249260933E+09,
2460259.500000000, A.D. 2023-Nov-11 00:00:00.0000, 2.729422474455334E+09, 2.639824697300663E+09, -1.233938458429154E+09,
2460266.500000000, A.D. 2023-Nov-18 00:00:00.0000, 2.727135517643496E+09, 2.642393789675119E+09, -1.233936722077511E+09,
2460273.500000000, A.D. 2023-Nov-25 00:00:00.0000, 2.724846408555122E+09, 2.644960796932364E+09, -1.233934040357520E+09,
2460280.500000000, A.D. 2023-Dec-02 00:00:00.0000, 2.722555151466697E+09, 2.647525717036704E+09, -1.233930413410420E+09,
2460287.500000000, A.D. 2023-Dec-09 00:00:00.0000, 2.720261750348201E+09, 2.650088547954805E+09, -1.233925841382974E+09,
2460294.500000000, A.D. 2023-Dec-16 00:00:00.0000, 2.717966209143893E+09, 2.652649287231688E+09, -1.233920324487924E+09,
2460301.500000000, A.D. 2023-Dec-23 00:00:00.0000, 2.715668532764244E+09, 2.655207932098416E+09, -1.233913863084922E+09,
2460308.500000000, A.D. 2023-Dec-30 00:00:00.0000, 2.713368727448838E+09, 2.657764481160742E+09, -1.233906457573365E+09,
2460315.500000000, A.D. 2024-Jan-06 00:00:00.0000, 2.711066798727755E+09, 2.660318935307988E+09, -1.233898108127671E+09,
2460322.500000000, A.D. 2024-Jan-13 00:00:00.0000, 2.708762750154210E+09, 2.662871296035274E+09, -1.233888814713875E+09,
2460329.500000000, A.D. 2024-Jan-20 00:00:00.0000, 2.706456584031985E+09, 2.665421564263639E+09, -1.233878577247977E+09,
2460336.500000000, A.D. 2024-Jan-27 00:00:00.0000, 2.704148302108925E+09, 2.667969740310303E+09, -1.233867395656879E+09,
2460343.500000000, A.D. 2024-Feb-03 00:00:00.0000, 2.701837905808126E+09, 2.670515824060389E+09, -1.233855269880390E+09,
2460350.500000000, A.D. 2024-Feb-10 00:00:00.0000, 2.699525396274171E+09, 2.673059815049054E+09, -1.233842199863760E+09,
2460357.500000000, A.D. 2024-Feb-17 00:00:00.0000, 2.697210774373126E+09, 2.675601712461898E+09, -1.233828185552964E+09,
2460364.500000000, A.D. 2024-Feb-24 00:00:00.0000, 2.694894040682217E+09, 2.678141515068479E+09, -1.233813226894990E+09,
2460371.500000000, A.D. 2024-Mar-02 00:00:00.0000, 2.692575195498560E+09, 2.680679221056393E+09, -1.233797323848591E+09,
2460378.500000000, A.D. 2024-Mar-09 00:00:00.0000, 2.690254239005723E+09, 2.683214827703074E+09, -1.233780476423427E+09,
2460385.500000000, A.D. 2024-Mar-16 00:00:00.0000, 2.687931171993448E+09, 2.685748331082574E+09, -1.233762684767819E+09,
2460392.500000000, A.D. 2024-Mar-23 00:00:00.0000, 2.685605997026942E+09, 2.688279726916364E+09, -1.233743949204997E+09,
2460399.500000000, A.D. 2024-Mar-30 00:00:00.0000, 2.683278717824608E+09, 2.690809012541374E+09, -1.233724270014493E+09,
2460406.500000000, A.D. 2024-Apr-06 00:00:00.0000, 2.680949337100224E+09, 2.693336186627646E+09, -1.233703647257387E+09,
2460413.500000000, A.D. 2024-Apr-13 00:00:00.0000, 2.678617856420731E+09, 2.695861247482042E+09, -1.233682080902748E+09,
2460420.500000000, A.D. 2024-Apr-20 00:00:00.0000, 2.676284277127451E+09, 2.698384192614636E+09, -1.233659570949209E+09,
2460427.500000000, A.D. 2024-Apr-27 00:00:00.0000, 2.673948600803755E+09, 2.700905019006435E+09, -1.233636117448353E+09,
2460434.500000000, A.D. 2024-May-04 00:00:00.0000, 2.671610829377054E+09, 2.703423723375119E+09, -1.233611720495390E+09,
2460441.500000000, A.D. 2024-May-11 00:00:00.0000, 2.669270965093481E+09, 2.705940302337168E+09, -1.233586380217220E+09,
2460448.500000000, A.D. 2024-May-18 00:00:00.0000, 2.666929010447247E+09, 2.708454752488286E+09, -1.233560096763485E+09,
2460455.500000000, A.D. 2024-May-25 00:00:00.0000, 2.664584968089384E+09, 2.710967070395297E+09, -1.233532870303284E+09,
2460462.500000000, A.D. 2024-Jun-01 00:00:00.0000, 2.662238840775713E+09, 2.713477252442430E+09, -1.233504701037506E+09,
2460469.500000000, A.D. 2024-Jun-08 00:00:00.0000, 2.659890631600430E+09, 2.715985294509341E+09, -1.233475589251029E+09,
2460476.500000000, A.D. 2024-Jun-15 00:00:00.0000, 2.657540344914784E+09, 2.718491192026236E+09, -1.233445535396593E+09,
2460483.500000000, A.D. 2024-Jun-22 00:00:00.0000, 2.655187986925678E+09, 2.720994941581464E+09, -1.233414540021866E+09,
2460490.500000000, A.D. 2024-Jun-29 00:00:00.0000, 2.652833563852520E+09, 2.723496542260991E+09, -1.233382603493620E+09,
2460497.500000000, A.D. 2024-Jul-06 00:00:00.0000, 2.650477080287363E+09, 2.725995994248767E+09, -1.233349725963375E+09,
2460504.500000000, A.D. 2024-Jul-13 00:00:00.0000, 2.648118539707558E+09, 2.728493297512183E+09, -1.233315907522317E+09,
2460511.500000000, A.D. 2024-Jul-20 00:00:00.0000, 2.645757945155284E+09, 2.730988451721374E+09, -1.233281148269436E+09,
2460518.500000000, A.D. 2024-Jul-27 00:00:00.0000, 2.643395299427955E+09, 2.733481456442935E+09, -1.233245448311076E+09,
2460525.500000000, A.D. 2024-Aug-03 00:00:00.0000, 2.641030605052422E+09, 2.735972311233223E+09, -1.233208807747667E+09,
2460532.500000000, A.D. 2024-Aug-10 00:00:00.0000, 2.638663864208773E+09, 2.738461015626947E+09, -1.233171226663338E+09,
2460539.500000000, A.D. 2024-Aug-17 00:00:00.0000, 2.636295078651028E+09, 2.740947569043094E+09, -1.233132705121171E+09,
2460546.500000000, A.D. 2024-Aug-24 00:00:00.0000, 2.633924249652594E+09, 2.743431970586274E+09, -1.233093243168714E+09,
2460553.500000000, A.D. 2024-Aug-31 00:00:00.0000, 2.631551378092075E+09, 2.745914218682384E+09, -1.233052840869634E+09,
2460560.500000000, A.D. 2024-Sep-07 00:00:00.0000, 2.629176465044958E+09, 2.748394310675306E+09, -1.233011498384961E+09,
2460567.500000000, A.D. 2024-Sep-14 00:00:00.0000, 2.626799512966412E+09, 2.750872243380816E+09, -1.232969216030623E+09,
2460574.500000000, A.D. 2024-Sep-21 00:00:00.0000, 2.624420525436358E+09, 2.753348015010536E+09, -1.232925994091669E+09,
2460581.500000000, A.D. 2024-Sep-28 00:00:00.0000, 2.622039504979348E+09, 2.755821625238429E+09, -1.232881832612418E+09,
2460588.500000000, A.D. 2024-Oct-05 00:00:00.0000, 2.619656452628909E+09, 2.758293073411664E+09, -1.232836731499136E+09,
2460595.500000000, A.D. 2024-Oct-12 00:00:00.0000, 2.617271368875774E+09, 2.760762357886082E+09, -1.232790690658724E+09,
2460602.500000000, A.D. 2024-Oct-19 00:00:00.0000, 2.614884254249052E+09, 2.763229476215574E+09, -1.232743710034992E+09,
2460609.500000000, A.D. 2024-Oct-26 00:00:00.0000, 2.612495109498002E+09, 2.765694425394188E+09, -1.232695789605067E+09,
2460616.500000000, A.D. 2024-Nov-02 00:00:00.0000, 2.610103935631853E+09, 2.768157202002800E+09, -1.232646929371667E+09,
2460623.500000000, A.D. 2024-Nov-09 00:00:00.0000, 2.607710733914403E+09, 2.770617802281338E+09, -1.232597129358358E+09,
2460630.500000000, A.D. 2024-Nov-16 00:00:00.0000, 2.605315505839448E+09, 2.773076222127111E+09, -1.232546389610125E+09,
2460637.500000000, A.D. 2024-Nov-23 00:00:00.0000, 2.602918253134120E+09, 2.775532456969635E+09, -1.232494710207551E+09,
2460644.500000000, A.D. 2024-Nov-30 00:00:00.0000, 2.600518977998581E+09, 2.777986501479554E+09, -1.232442091317140E+09,
2460651.500000000, A.D. 2024-Dec-07 00:00:00.0000, 2.598117684001604E+09, 2.780438349532516E+09, -1.232388533281746E+09,
2460658.500000000, A.D. 2024-Dec-14 00:00:00.0000, 2.595714376943499E+09, 2.782887995652140E+09, -1.232334036587831E+09,
2460665.500000000, A.D. 2024-Dec-21 00:00:00.0000, 2.593309063367929E+09, 2.785335436691452E+09, -1.232278601598122E+09,
2460672.500000000, A.D. 2024-Dec-28 00:00:00.0000, 2.590901748695096E+09, 2.787780670785535E+09, -1.232222228472906E+09,
2460679.500000000, A.D. 2025-Jan-04 00:00:00.0000, 2.588492437573631E+09, 2.790223695951651E+09, -1.232164917323797E+09,
2460686.500000000, A.D. 2025-Jan-11 00:00:00.0000, 2.586081134629964E+09, 2.792664509996701E+09, -1.232106668297056E+09,
2460693.500000000, A.D. 2025-Jan-18 00:00:00.0000, 2.583667844698418E+09, 2.795103110813273E+09, -1.232047481577179E+09,
2460700.500000000, A.D. 2025-Jan-25 00:00:00.0000, 2.581252572775595E+09, 2.797539496589710E+09, -1.231987357371624E+09,
2460707.500000000, A.D. 2025-Feb-01 00:00:00.0000, 2.578835323888731E+09, 2.799973665904095E+09, -1.231926295896237E+09,
2460714.500000000, A.D. 2025-Feb-08 00:00:00.0000, 2.576416102936515E+09, 2.802405617721817E+09, -1.231864297364907E+09,
2460721.500000000, A.D. 2025-Feb-15 00:00:00.0000, 2.573994914531293E+09, 2.804835351276683E+09, -1.231801361987495E+09,
$$EOE